DELTA 2 R/B(1)          
1 20453U 90008B   26193.73718541  .00081689  00000+0  50606-3 0  9999
2 20453  35.6002  64.1871 0060179 352.8305   7.1572 15.73213337945722
COSMOS 2058             
1 20465U 90010A   26193.74538315  .00001573  00000+0  89546-4 0  9995
2 20465  82.4672 284.1489 0007885 260.2643  99.7697 15.12149209961136
SL-14 R/B               
1 20466U 90010B   26193.32400135  .00000198  00000+0  21092-4 0  9992
2 20466  82.5034 150.3385 0018280 247.4929 112.4351 14.83662061946961
SL-14 R/B               
1 20511U 90018B   26193.79936373  .00000213  00000+0  23650-4 0  9990
2 20511  82.5219 106.1697 0017207  44.2601 315.9986 14.82233205941119
HST                     
1 20580U 90037B   26193.50194392  .00003754  00000+0  11416-3 0  9992
2 20580  28.4726 267.5224 0002269  77.7190 282.3660 15.31043109792455
SL-16 R/B               
1 20625U 90046B   26193.75047740  .00000146  00000+0  10002-3 0  9995
2 20625  70.9983  35.2588 0012442 118.6548 241.5827 14.15023521866081
COSMOS 2084             
1 20663U 90055A   26193.62226242  .00000914  00000+0  75805-4 0  9995
2 20663  62.7887 269.2708 0007764 315.8302  44.2178 15.06217986955131
SL-6 R/B(2)             
1 20666U 90055D   26193.38030861  .00001023  00000+0  86820-4 0  9992
2 20666  62.7801 189.6408 0044696   8.6311 351.5546 15.04080778956942
SL-8 R/B                
1 20775U 90078B   26193.79709595  .00014872  00000+0  42138-3 0  9999
2 20775  82.9029 138.4824 0343927 311.7109  45.5150 14.93523575827947
SL-8 R/B                
1 21088U 91006B   26193.77774244  .00000074  00000+0  58553-4 0  9998
2 21088  82.9411  76.9951 0023552  46.9654  20.6828 13.77508836781295
OKEAN-3                 
1 21397U 91039A   26193.59672090  .00001556  00000+0  10634-3 0  9996
2 21397  82.5139 215.7386 0012213 264.5319  95.4515 15.05425475883829
COSMOS 2151             
1 21422U 91042A   26193.80102177  .00000701  00000+0  53408-4 0  9995
2 21422  82.4979 322.9612 0012192   3.6434 356.4877 15.00509717881958
SL-14 R/B               
1 21423U 91042B   26193.81134854  .00000181  00000+0  19814-4 0  9999
2 21423  82.4934 102.8671 0016763 184.7480 175.3578 14.81917313871600
ERS-1                   
1 21574U 91050A   26193.67400068  .00000139  00000+0  59070-4 0  9993
2 21574  98.7795 214.9943 0031748 189.2461 170.8146 14.39531822833719
ARIANE 40 R/B           
1 21610U 91050F   26193.70567544  .00000122  00000+0  48849-4 0  9995
2 21610  98.1863 241.1268 0004251  66.9289 293.2349 14.42971031837027
INTERCOSMOS 25          
1 21819U 91086A   26193.61681374  .00000505  00000+0  97751-4 0  9994
2 21819  82.6012 234.4213 1484451 207.4902 143.9443 12.12238581511820
SL-8 R/B                
1 21876U 92008B   26193.44244314  .00000111  00000+0  98301-4 0  9997
2 21876  82.9271 175.0098 0035511 144.1182 332.7893 13.75983212726574
SL-8 R/B                
1 21938U 92020B   26193.73253375  .00000032  00000+0  17327-4 0  9990
2 21938  82.9286  60.8804 0028039 310.7625 117.9336 13.75550278718326
USA 81                  
1 21949U 92023A   26193.70246569  .00000106  00000+0  31679-4 0  9997
2 21949  85.0053  59.2781 0002098  65.6176 294.5236 14.32404494112684
COSMOS 2219             
1 22219U 92076A   26193.79748176 -.00000187  00000+0 -73109-4 0  9991
2 22219  71.0614 116.5357 0018113   1.1954 358.9208 14.14109433736066
SL-16 R/B               
1 22220U 92076B   26193.66615705  .00000228  00000+0  13736-3 0  9993
2 22220  71.0006 285.1089 0015016 265.3093 200.8384 14.16876336739535
COSMOS 2221             
1 22236U 92080A   26193.41265958  .00000889  00000+0  75582-4 0  9990
2 22236  82.5045 159.5961 0015526 128.6864 231.5750 14.96599087799445
SL-16 R/B               
1 22285U 92093B   26193.75409634 -.00000191  00000+0 -73219-4 0  9999
2 22285  71.0221 101.7199 0002385 140.7376 219.3921 14.15466588730856
COSMOS 2228             
1 22286U 92094A   26193.81102628  .00001017  00000+0  84420-4 0  9993
2 22286  82.5189 117.4993 0016169 237.8334 122.1321 14.97671501794780
SL-16 R/B               
1 22566U 93016B   26193.73687184  .00000067  00000+0  58609-4 0  9999
2 22566  71.0084 312.5439 0008937 142.4425 217.7324 14.15311733719865
COSMOS 2242             
1 22626U 93024A   26193.84908527  .00000942  00000+0  79527-4 0  9998
2 22626  82.5197 146.9912 0014517 241.3226 118.6538 14.96980784799117
SL-16 R/B               
1 22803U 93059B   26193.75764266 -.00000247  00000+0 -98600-4 0  9996
2 22803  70.9904 107.3811 0016520  12.1732 347.9787 14.17250067697254
ARIANE 40 R/B           
1 22830U 93061H   26193.76242267  .00000077  00000+0  44085-4 0  9999
2 22830  98.4808 260.0867 0009467 273.7399  86.2702 14.32917989712018
COSMOS 2278             
1 23087U 94023A   26193.63638545 -.00000104  00000+0 -29410-4 0  9995
2 23087  71.0526 273.6801 0009779 209.5245 150.5327 14.14393328662475
SL-16 R/B               
1 23088U 94023B   26193.34401977 -.00000022  00000+0  13011-4 0  9999
2 23088  70.9981 169.0993 0001454 139.0250 221.0982 14.15023885663723
SL-16 R/B               
1 23343U 94074B   26193.65416497  .00000201  00000+0  33501-4 0  9990
2 23343  97.6987 219.3130 0006958 161.8794 311.8907 14.79523008705725
SL-16 R/B               
1 23405U 94077B   26193.77163793 -.00000213  00000+0 -84357-4 0  9993
2 23405  70.9824  89.3384 0004088 305.2082  54.8658 14.15574700633935
ARIANE 40+ R/B          
1 23561U 95021B   26193.77597713  .00000125  00000+0  53789-4 0  9994
2 23561  98.4401 263.4800 0007838 122.7513 347.3953 14.39846849637247
SL-16 R/B               
1 23705U 95058B   26193.64331132  .00000019  00000+0  33861-4 0  9992
2 23705  71.0211 277.9131 0014610 286.0887  73.8628 14.15508092585537
SL-16 R/B               
1 24298U 96051B   26193.66798088  .00000145  00000+0  10512-3 0  9990
2 24298  70.7648 270.7251 0017615 301.3580  58.5816 14.12455481539299
ORBVIEW 2 (SEASTAR)     
1 24883U 97037A   26193.46007217  .00000112  00000+0  55102-4 0  9999
2 24883  98.8710   1.1824 0003142  66.3262 293.8252 14.35566011526377
SL-16 R/B               
1 25400U 98043G   26193.83184771 -.00000007  00000+0  15940-4 0  9995
2 25400  98.8378 148.2137 0010161  18.0514 342.1024 14.26072492456828
SL-16 R/B               
1 25407U 98045B   26193.66356483 -.00000255  00000+0 -10452-3 0  9994
2 25407  71.0114 278.7526 0008314 210.2084 149.8561 14.16206165444798
ISS (ZARYA)             
1 25544U 98067A   26193.79871965  .00004831  00000+0  95802-4 0  9996
2 25544  51.6301 173.3406 0006695 288.1916  71.8344 15.48994114575722
CZ-4B R/B               
1 25732U 99025C   26193.75696970  .00000016  00000+0  28614-4 0  9995
2 25732  98.6473 234.9503 0036769 346.8499 126.2499 14.18287409405891
OKEAN-O                 
1 25860U 99039A   26193.76014792  .00000283  00000+0  43799-4 0  9996
2 25860  97.9303 252.2628 0000928  82.8184 277.3133 14.80495702452895
SL-16 R/B               
1 25861U 99039B   26193.75819676  .00000251  00000+0  38497-4 0  9994
2 25861  97.9824 252.5466 0014132 206.6300 153.4189 14.81869383455388
DELTA 2 R/B             
1 25876U 99041E   26193.30278529  .00001331  00000+0  25225-3 0  9994
2 25876  51.7614 163.4543 0501317 356.2165   3.5037 14.12076723380636
HELIOS 1B               
1 25977U 99064A   26193.73114634  .00000659  00000+0  78013-4 0  9990
2 25977  98.1588  99.6081 0002072  57.0152 303.1263 14.88071495703853
TERRA                   
1 25994U 99068A   26193.83347969  .00000213  00000+0  52367-4 0  9993
2 25994  97.9443 242.3611 0003317 127.4066 284.6397 14.61122648413356
SL-16 R/B               
1 26070U 00006B   26193.42874104 -.00000229  00000+0 -91725-4 0  9994
2 26070  71.0002 195.5500 0017086 343.8109  16.2466 14.15838664366211
TITAN 4B R/B            
1 26474U 00047B   26193.82264793  .00001329  00000+0  87440-4 0  9997
2 26474  67.9872  48.4073 0045888 261.1022  98.4931 15.10326555411808
ENVISAT                 
1 27386U 02009A   26193.82998220  .00000016  00000+0  19006-4 0  9994
2 27386  98.3846 144.5784 0001342  84.2090 305.3546 14.39070436277179
IDEFIX & ARIANE 42P R/B 
1 27422U 02021B   26193.78908177  .00000092  00000+0  51657-4 0  9998
2 27422  98.5942 130.9953 0011734 173.4900 186.6438 14.31093152261910
AQUA                    
1 27424U 02022A   26193.91276689  .00000389  00000+0  87043-4 0  9999
2 27424  98.4294 163.7125 0000864 108.8614 267.3759 14.62195196287031
CZ-4B R/B               
1 27432U 02024C   26193.78423440  .00000008  00000+0  27046-4 0  9999
2 27432  98.8688 246.4364 0050590  28.7834  80.5041 14.14567941246920
MIDORI II (ADEOS-II)    
1 27597U 02056A   26193.75852547  .00000110  00000+0  60833-4 0  9992
2 27597  98.7893 153.2378 0001580  42.7731 317.3573 14.29362418228161
H-2A R/B                
1 27601U 02056E   26193.83185257  .00000119  00000+0  56013-4 0  9998
2 27601  98.3327 149.5735 0070761 147.9016 273.6079 14.33833130232047
CZ-4B R/B               
1 28059U 03049C   26193.53624235  .00000136  00000+0  42897-4 0  9994
2 28059  98.6908 193.3931 0047470 209.4665 150.3854 14.55114993204755
CZ-2C R/B               
1 28222U 04012C   26193.78255947  .00121868  00000+0  52196-3 0  9992
2 28222  97.7065 272.5314 0011432 198.9120 161.1726 15.84695578223949
SL-16 R/B               
1 28353U 04021B   26193.75901400  .00000057  00000+0  54354-4 0  9991
2 28353  71.0026 330.0206 0006396 227.1108 132.9478 14.14616104140522
CZ-4B R/B               
1 28415U 04035C   26193.56054513  .00004346  00000+0  14603-3 0  9995
2 28415  97.3361 226.3521 0029078 242.4975 117.3310 15.30969035199007
CZ-2C R/B               
1 28480U 04046B   26193.71411892  .00000040  00000+0  29708-4 0  9993
2 28480  98.1920 100.8967 0139977 144.6971 216.3579 14.27032580126332
ARIANE 5 R/B            
1 28499U 04049H   26193.45732548  .00000288  00000+0  38649-4 0  9999
2 28499  98.2739   6.6900 0082755 307.2822  52.0867 14.85477046164313
